GLOBALSTAR M001 [-]     
1 25162U 98008A   24092.54161175 -.00000090  00000+0  49044-4 0  9992
2 25162  52.0023 178.6371 0001639  60.6567 312.5716 12.38180583189004
GLOBALSTAR M004 [-]     
1 25163U 98008B   24092.40255112 -.00000054  00000+0  27611-3 0  9998
2 25163  52.0009 321.8925 0003538  40.1218 130.6580 12.63353630205844
GLOBALSTAR M002 [-]     
1 25164U 98008C   24092.86142630 -.00000040  00000+0  72187-3 0  9992
2 25164  52.0001 266.7476 0002026  74.3577 285.7466 11.61500559132859
GLOBALSTAR M003 [-]     
1 25165U 98008D   24092.90960993  .00000045  00000+0  14367-2 0  9997
2 25165  51.9844 310.7125 0008515 122.8440 252.4291 12.11990275179808
GLOBALSTAR M014 [-]     
1 25306U 98023A   24092.59696169 -.00000064  00000+0  25263-3 0  9997
2 25306  51.9827 199.9167 0000580 218.2686 155.0678 11.65466176139680
GLOBALSTAR M006 [-]     
1 25307U 98023B   24092.87369994 -.00000006  00000+0  14209-2 0  9995
2 25307  51.9921 235.1966 0003933  46.2526 123.4195 11.58159293165800
GLOBALSTAR M015 [-]     
1 25308U 98023C   24092.57035720 -.00000117  00000+0 -99623-3 0  9998
2 25308  51.9837 314.1861 0012704  14.5178 358.2992 11.48851216143695
GLOBALSTAR M008 [-]     
1 25309U 98023D   24092.57776735 -.00000065  00000+0  24786-3 0  9996
2 25309  51.9991  38.3572 0002515 335.2362 196.0983 12.36039734183231
